CCSDS_OMM_VERS = 2.0
CREATION_DATE  = 
ORIGINATOR     = 

OBJECT_NAME    = STARLINK-35833
OBJECT_ID      = 2025-265AC
CENTER_NAME    = EARTH
REF_FRAME      = TEME
TIME_SYSTEM    = UTC
MEAN_ELEMENT_THEORY = SGP/SGP4

EPOCH          = 2025-11-25T16:00:05.999040
MEAN_MOTION    = 15.94464628
ECCENTRICITY   = .0001738
INCLINATION    = 43.0016
RA_OF_ASC_NODE = 156.7487
ARG_OF_PERICENTER = 274.0355
MEAN_ANOMALY   = 117.0647

EPHEMERIS_TYPE = 0
CLASSIFICATION_TYPE = U
NORAD_CAT_ID   = 66542
ELEMENT_SET_NO = 999
REV_AT_EPOCH   = 225
BSTAR          = -.39465E-2
MEAN_MOTION_DOT = -.1540787E-1
MEAN_MOTION_DDOT = .68297E-3

CCSDS_OMM_VERS = 2.0
CREATION_DATE  = 
ORIGINATOR     = 

OBJECT_NAME    = STARLINK-35315
OBJECT_ID      = 2025-265AD
CENTER_NAME    = EARTH
REF_FRAME      = TEME
TIME_SYSTEM    = UTC
MEAN_ELEMENT_THEORY = SGP/SGP4

EPOCH          = 2025-11-25T16:00:05.999040
MEAN_MOTION    = 15.94535118
ECCENTRICITY   = .0001838
INCLINATION    = 43.0016
RA_OF_ASC_NODE = 156.7442
ARG_OF_PERICENTER = 273.5115
MEAN_ANOMALY   = 119.1528

EPHEMERIS_TYPE = 0
CLASSIFICATION_TYPE = U
NORAD_CAT_ID   = 66543
ELEMENT_SET_NO = 999
REV_AT_EPOCH   = 214
BSTAR          = -.39664E-2
MEAN_MOTION_DOT = -.1554267E-1
MEAN_MOTION_DDOT = .69448E-3

CCSDS_OMM_VERS = 2.0
CREATION_DATE  = 
ORIGINATOR     = 

OBJECT_NAME    = STARLINK-35728
OBJECT_ID      = 2025-265AE
CENTER_NAME    = EARTH
REF_FRAME      = TEME
TIME_SYSTEM    = UTC
MEAN_ELEMENT_THEORY = SGP/SGP4

EPOCH          = 2025-11-25T16:00:05.999040
MEAN_MOTION    = 15.94604380
ECCENTRICITY   = .0001795
INCLINATION    = 43.0014
RA_OF_ASC_NODE = 156.7410
ARG_OF_PERICENTER = 271.3258
MEAN_ANOMALY   = 122.7611

EPHEMERIS_TYPE = 0
CLASSIFICATION_TYPE = U
NORAD_CAT_ID   = 66544
ELEMENT_SET_NO = 999
REV_AT_EPOCH   = 225
BSTAR          = -.39863E-2
MEAN_MOTION_DOT = -.1567702E-1
MEAN_MOTION_DDOT = .70606E-3

CCSDS_OMM_VERS = 2.0
CREATION_DATE  = 
ORIGINATOR     = 

OBJECT_NAME    = SHIJIAN-30A
OBJECT_ID      = 2025-266A
CENTER_NAME    = EARTH
REF_FRAME      = TEME
TIME_SYSTEM    = UTC
MEAN_ELEMENT_THEORY = SGP/SGP4

EPOCH          = 2025-11-26T04:53:41.024256
MEAN_MOTION    = 15.15280967
ECCENTRICITY   = .0012793
INCLINATION    = 51.7986
RA_OF_ASC_NODE = 50.3084
ARG_OF_PERICENTER = 296.7998
MEAN_ANOMALY   = 63.1669

EPHEMERIS_TYPE = 0
CLASSIFICATION_TYPE = U
NORAD_CAT_ID   = 66545
ELEMENT_SET_NO = 999
REV_AT_EPOCH   = 107
BSTAR          = .62875E-3
MEAN_MOTION_DOT = .11714E-3
MEAN_MOTION_DDOT = 0

CCSDS_OMM_VERS = 2.0
CREATION_DATE  = 
ORIGINATOR     = 

OBJECT_NAME    = SHIJIAN-30B
OBJECT_ID      = 2025-266B
CENTER_NAME    = EARTH
REF_FRAME      = TEME
TIME_SYSTEM    = UTC
MEAN_ELEMENT_THEORY = SGP/SGP4

EPOCH          = 2025-11-26T04:55:20.140608
MEAN_MOTION    = 15.15172704
ECCENTRICITY   = .0010292
INCLINATION    = 51.7971
RA_OF_ASC_NODE = 50.3153
ARG_OF_PERICENTER = 297.8209
MEAN_ANOMALY   = 62.1723

EPHEMERIS_TYPE = 0
CLASSIFICATION_TYPE = U
NORAD_CAT_ID   = 66546
ELEMENT_SET_NO = 999
REV_AT_EPOCH   = 107
BSTAR          = .74466E-3
MEAN_MOTION_DOT = .13883E-3
MEAN_MOTION_DDOT = 0

CCSDS_OMM_VERS = 2.0
CREATION_DATE  = 
ORIGINATOR     = 

OBJECT_NAME    = SHIJIAN-30C
OBJECT_ID      = 2025-266C
CENTER_NAME    = EARTH
REF_FRAME      = TEME
TIME_SYSTEM    = UTC
MEAN_ELEMENT_THEORY = SGP/SGP4

EPOCH          = 2025-11-25T21:01:54.073920
MEAN_MOTION    = 15.15228949
ECCENTRICITY   = .001127
INCLINATION    = 51.7983
RA_OF_ASC_NODE = 51.8657
ARG_OF_PERICENTER = 289.1663
MEAN_ANOMALY   = 70.8093

EPHEMERIS_TYPE = 0
CLASSIFICATION_TYPE = U
NORAD_CAT_ID   = 66547
ELEMENT_SET_NO = 999
REV_AT_EPOCH   = 102
BSTAR          = .53798E-3
MEAN_MOTION_DOT = .9956E-4
MEAN_MOTION_DDOT = 0

CCSDS_OMM_VERS = 2.0
CREATION_DATE  = 
ORIGINATOR     = 

OBJECT_NAME    = CZ-2C R/B
OBJECT_ID      = 2025-266D
CENTER_NAME    = EARTH
REF_FRAME      = TEME
TIME_SYSTEM    = UTC
MEAN_ELEMENT_THEORY = SGP/SGP4

EPOCH          = 2025-11-26T04:56:21.840576
MEAN_MOTION    = 15.29652880
ECCENTRICITY   = .0085224
INCLINATION    = 52.0558
RA_OF_ASC_NODE = 50.0192
ARG_OF_PERICENTER = 116.5807
MEAN_ANOMALY   = 244.3944

EPHEMERIS_TYPE = 0
CLASSIFICATION_TYPE = U
NORAD_CAT_ID   = 66548
ELEMENT_SET_NO = 999
REV_AT_EPOCH   = 108
BSTAR          = .4261E-3
MEAN_MOTION_DOT = .13491E-3
MEAN_MOTION_DDOT = 0

CCSDS_OMM_VERS = 2.0
CREATION_DATE  = 
ORIGINATOR     = 

OBJECT_NAME    = GLOBAL-33
OBJECT_ID      = 2025-267A
CENTER_NAME    = EARTH
REF_FRAME      = TEME
TIME_SYSTEM    = UTC
MEAN_ELEMENT_THEORY = SGP/SGP4

EPOCH          = 2025-11-25T05:59:02.320224
MEAN_MOTION    = 15.31053705
ECCENTRICITY   = .00064575
INCLINATION    = 42.0190
RA_OF_ASC_NODE = 157.9247
ARG_OF_PERICENTER = 295.9225
MEAN_ANOMALY   = 64.0946

EPHEMERIS_TYPE = 0
CLASSIFICATION_TYPE = U
NORAD_CAT_ID   = 66554
ELEMENT_SET_NO = 999
REV_AT_EPOCH   = 72
BSTAR          = .45749765E-3
MEAN_MOTION_DOT = .13803E-3
MEAN_MOTION_DDOT = 0

CCSDS_OMM_VERS = 2.0
CREATION_DATE  = 
ORIGINATOR     = 

OBJECT_NAME    = ELECTRON KICK STAGE R/B
OBJECT_ID      = 2025-267B
CENTER_NAME    = EARTH
REF_FRAME      = TEME
TIME_SYSTEM    = UTC
MEAN_ELEMENT_THEORY = SGP/SGP4

EPOCH          = 2025-11-25T05:56:27.608928
MEAN_MOTION    = 15.31695004
ECCENTRICITY   = .00081265
INCLINATION    = 42.0175
RA_OF_ASC_NODE = 157.9146
ARG_OF_PERICENTER = 293.8846
MEAN_ANOMALY   = 66.1139

EPHEMERIS_TYPE = 0
CLASSIFICATION_TYPE = U
NORAD_CAT_ID   = 66555
ELEMENT_SET_NO = 999
REV_AT_EPOCH   = 72
BSTAR          = .87833826E-3
MEAN_MOTION_DOT = .27337E-3
MEAN_MOTION_DDOT = 0

CCSDS_OMM_VERS = 2.0
CREATION_DATE  = 
ORIGINATOR     = 

OBJECT_NAME    = ELECTRON R/B
OBJECT_ID      = 2025-267C
CENTER_NAME    = EARTH
REF_FRAME      = TEME
TIME_SYSTEM    = UTC
MEAN_ELEMENT_THEORY = SGP/SGP4

EPOCH          = 2025-11-21T16:32:06.481824
MEAN_MOTION    = 15.83492186
ECCENTRICITY   = .0218594
INCLINATION    = 42.0620
RA_OF_ASC_NODE = 178.0185
ARG_OF_PERICENTER = 275.5638
MEAN_ANOMALY   = 82.0326

EPHEMERIS_TYPE = 0
CLASSIFICATION_TYPE = U
NORAD_CAT_ID   = 66556
ELEMENT_SET_NO = 999
REV_AT_EPOCH   = 18
BSTAR          = .18539664E-3
MEAN_MOTION_DOT = .33002E-2
MEAN_MOTION_DDOT = .7327328E-5

CCSDS_OMM_VERS = 2.0
CREATION_DATE  = 
ORIGINATOR     = 

OBJECT_NAME    = TJS-21
OBJECT_ID      = 2025-269A
CENTER_NAME    = EARTH
REF_FRAME      = TEME
TIME_SYSTEM    = UTC
MEAN_ELEMENT_THEORY = SGP/SGP4

EPOCH          = 2025-11-22T00:38:56.616288
MEAN_MOTION    = 2.00992210
ECCENTRICITY   = .75179873
INCLINATION    = 51.0366
RA_OF_ASC_NODE = 174.7096
ARG_OF_PERICENTER = 225.0489
MEAN_ANOMALY   = 41.6572

EPHEMERIS_TYPE = 0
CLASSIFICATION_TYPE = U
NORAD_CAT_ID   = 66586
ELEMENT_SET_NO = 999
REV_AT_EPOCH   = 2
BSTAR          = .53569978E-3
MEAN_MOTION_DOT = .3197E-4
MEAN_MOTION_DDOT = 0

CCSDS_OMM_VERS = 2.0
CREATION_DATE  = 
ORIGINATOR     = 

OBJECT_NAME    = CZ-3B R/B
OBJECT_ID      = 2025-269B
CENTER_NAME    = EARTH
REF_FRAME      = TEME
TIME_SYSTEM    = UTC
MEAN_ELEMENT_THEORY = SGP/SGP4

EPOCH          = 2025-11-23T12:20:01.405824
MEAN_MOTION    = 2.01516013
ECCENTRICITY   = .75253415
INCLINATION    = 51.3768
RA_OF_ASC_NODE = 174.0599
ARG_OF_PERICENTER = 225.2938
MEAN_ANOMALY   = 41.2116

EPHEMERIS_TYPE = 0
CLASSIFICATION_TYPE = U
NORAD_CAT_ID   = 66587
ELEMENT_SET_NO = 999
REV_AT_EPOCH   = 6
BSTAR          = .49596604E-3
MEAN_MOTION_DOT = .1032E-3
MEAN_MOTION_DDOT = -.913844E-6

